DELTA 2 R/B(1)          
1 20453U 90008B   26060.47956548  .00074112  00000+0  90452-3 0  9990
2 20453  35.6026 228.6867 0087138 182.5520 177.4779 15.54705102924857
COSMOS 2058             
1 20465U 90010A   26060.43797876  .00004775  00000+0  28222-3 0  9993
2 20465  82.4663  55.5574 0009960  10.7417 349.4024 15.11232471940997
SL-14 R/B               
1 20466U 90010B   26060.05371551  .00000447  00000+0  51302-4 0  9998
2 20466  82.4994 275.5028 0019096 332.4095  27.6105 14.83560199927203
SL-14 R/B               
1 20511U 90018B   26060.46831333  .00000626  00000+0  75530-4 0  9999
2 20511  82.5189 230.7748 0017560 116.9541 243.3470 14.82134195921363
HST                     
1 20580U 90037B   26060.39460694  .00008629  00000+0  28681-3 0  9991
2 20580  28.4699  96.5806 0001584  41.9765 318.0951 15.29328400772040
SL-16 R/B               
1 20625U 90046B   26060.14349024 -.00000131  00000+0 -43119-4 0  9993
2 20625  71.0007 315.8630 0016043 311.1558  48.8180 14.15015124847187
COSMOS 2084             
1 20663U 90055A   26060.28715421  .00003410  00000+0  24847-3 0  9995
2 20663  62.7920   4.2331 0018308 188.0140 172.0671 15.05588169935054
SL-6 R/B(2)             
1 20666U 90055D   26060.32484663  .00002293  00000+0  18078-3 0  9991
2 20666  62.7823 282.2972 0023451 344.9290  15.1107 15.03547841936931
SL-8 R/B                
1 20775U 90078B   26060.51122723  .00016323  00000+0  47938-3 0  9990
2 20775  82.8993 258.6661 0364190  41.4562 321.3678 14.88743535808083
SL-8 R/B                
1 21088U 91006B   26060.41705740  .00000041  00000+0  25511-4 0  9999
2 21088  82.9462 176.1954 0023491  60.6245   3.7972 13.77493162762935
OKEAN-3                 
1 21397U 91039A   26060.30037476  .00003767  00000+0  26499-3 0  9993
2 21397  82.5201 344.9686 0014475   7.7229 352.4218 15.04734003863773
COSMOS 2151             
1 21422U 91042A   26060.47868019  .00002005  00000+0  15853-3 0  9995
2 21422  82.4933  91.5987 0014149  88.1296 272.1548 15.00067208861962
