CCSDS_OMM_VERS = 2.0
CREATION_DATE  = 
ORIGINATOR     = 

OBJECT_NAME    = DELTA 2 R/B(1)
OBJECT_ID      = 1990-008B
CENTER_NAME    = EARTH
REF_FRAME      = TEME
TIME_SYSTEM    = UTC
MEAN_ELEMENT_THEORY = SGP/SGP4

EPOCH          = 2026-03-01T11:30:34.457472
MEAN_MOTION    = 15.54705102
ECCENTRICITY   = .0087138
INCLINATION    = 35.6026
RA_OF_ASC_NODE = 228.6867
ARG_OF_PERICENTER = 182.5520
MEAN_ANOMALY   = 177.4779

EPHEMERIS_TYPE = 0
CLASSIFICATION_TYPE = U
NORAD_CAT_ID   = 20453
ELEMENT_SET_NO = 999
REV_AT_EPOCH   = 92485
BSTAR          = .90452E-3
MEAN_MOTION_DOT = .74112E-3
MEAN_MOTION_DDOT = 0

CCSDS_OMM_VERS = 2.0
CREATION_DATE  = 
ORIGINATOR     = 

OBJECT_NAME    = COSMOS 2058
OBJECT_ID      = 1990-010A
CENTER_NAME    = EARTH
REF_FRAME      = TEME
TIME_SYSTEM    = UTC
MEAN_ELEMENT_THEORY = SGP/SGP4

EPOCH          = 2026-03-01T10:30:41.364864
MEAN_MOTION    = 15.11232471
ECCENTRICITY   = .000996
INCLINATION    = 82.4663
RA_OF_ASC_NODE = 55.5574
ARG_OF_PERICENTER = 10.7417
MEAN_ANOMALY   = 349.4024

EPHEMERIS_TYPE = 0
CLASSIFICATION_TYPE = U
NORAD_CAT_ID   = 20465
ELEMENT_SET_NO = 999
REV_AT_EPOCH   = 94099
BSTAR          = .28222E-3
MEAN_MOTION_DOT = .4775E-4
MEAN_MOTION_DDOT = 0

CCSDS_OMM_VERS = 2.0
CREATION_DATE  = 
ORIGINATOR     = 

OBJECT_NAME    = SL-14 R/B
OBJECT_ID      = 1990-010B
CENTER_NAME    = EARTH
REF_FRAME      = TEME
TIME_SYSTEM    = UTC
MEAN_ELEMENT_THEORY = SGP/SGP4

EPOCH          = 2026-03-01T01:17:21.020064
MEAN_MOTION    = 14.83560199
ECCENTRICITY   = .00190965
INCLINATION    = 82.4994
RA_OF_ASC_NODE = 275.5028
ARG_OF_PERICENTER = 332.4095
MEAN_ANOMALY   = 27.6105

EPHEMERIS_TYPE = 0
CLASSIFICATION_TYPE = U
NORAD_CAT_ID   = 20466
ELEMENT_SET_NO = 999
REV_AT_EPOCH   = 92720
BSTAR          = .51301665E-4
MEAN_MOTION_DOT = .447E-5
MEAN_MOTION_DDOT = 0

CCSDS_OMM_VERS = 2.0
CREATION_DATE  = 
ORIGINATOR     = 

OBJECT_NAME    = SL-14 R/B
OBJECT_ID      = 1990-018B
CENTER_NAME    = EARTH
REF_FRAME      = TEME
TIME_SYSTEM    = UTC
MEAN_ELEMENT_THEORY = SGP/SGP4

EPOCH          = 2026-03-01T11:14:22.271712
MEAN_MOTION    = 14.82134195
ECCENTRICITY   = .001756
INCLINATION    = 82.5189
RA_OF_ASC_NODE = 230.7748
ARG_OF_PERICENTER = 116.9541
MEAN_ANOMALY   = 243.3470

EPHEMERIS_TYPE = 0
CLASSIFICATION_TYPE = U
NORAD_CAT_ID   = 20511
ELEMENT_SET_NO = 999
REV_AT_EPOCH   = 92136
BSTAR          = .7553E-4
MEAN_MOTION_DOT = .626E-5
MEAN_MOTION_DDOT = 0

CCSDS_OMM_VERS = 2.0
CREATION_DATE  = 
ORIGINATOR     = 

OBJECT_NAME    = HST
OBJECT_ID      = 1990-037B
CENTER_NAME    = EARTH
REF_FRAME      = TEME
TIME_SYSTEM    = UTC
MEAN_ELEMENT_THEORY = SGP/SGP4

EPOCH          = 2026-03-01T09:28:14.039616
MEAN_MOTION    = 15.29328400
ECCENTRICITY   = .0001584
INCLINATION    = 28.4699
RA_OF_ASC_NODE = 96.5806
ARG_OF_PERICENTER = 41.9765
MEAN_ANOMALY   = 318.0951

EPHEMERIS_TYPE = 0
CLASSIFICATION_TYPE = U
NORAD_CAT_ID   = 20580
ELEMENT_SET_NO = 999
REV_AT_EPOCH   = 77204
BSTAR          = .28681E-3
MEAN_MOTION_DOT = .8629E-4
MEAN_MOTION_DDOT = 0

CCSDS_OMM_VERS = 2.0
CREATION_DATE  = 
ORIGINATOR     = 

OBJECT_NAME    = SL-16 R/B
OBJECT_ID      = 1990-046B
CENTER_NAME    = EARTH
REF_FRAME      = TEME
TIME_SYSTEM    = UTC
MEAN_ELEMENT_THEORY = SGP/SGP4

EPOCH          = 2026-03-01T03:26:37.556736
MEAN_MOTION    = 14.15015124
ECCENTRICITY   = .00160434
INCLINATION    = 71.0007
RA_OF_ASC_NODE = 315.8630
ARG_OF_PERICENTER = 311.1558
MEAN_ANOMALY   = 48.8180

EPHEMERIS_TYPE = 0
CLASSIFICATION_TYPE = U
NORAD_CAT_ID   = 20625
ELEMENT_SET_NO = 999
REV_AT_EPOCH   = 84718
BSTAR          = -.43118578E-4
MEAN_MOTION_DOT = -.131E-5
MEAN_MOTION_DDOT = 0

CCSDS_OMM_VERS = 2.0
CREATION_DATE  = 
ORIGINATOR     = 

OBJECT_NAME    = COSMOS 2084
OBJECT_ID      = 1990-055A
CENTER_NAME    = EARTH
REF_FRAME      = TEME
TIME_SYSTEM    = UTC
MEAN_ELEMENT_THEORY = SGP/SGP4

EPOCH          = 2026-03-01T06:53:30.123744
MEAN_MOTION    = 15.05588169
ECCENTRICITY   = .0018308
INCLINATION    = 62.7920
RA_OF_ASC_NODE = 4.2331
ARG_OF_PERICENTER = 188.0140
MEAN_ANOMALY   = 172.0671

EPHEMERIS_TYPE = 0
CLASSIFICATION_TYPE = U
NORAD_CAT_ID   = 20663
ELEMENT_SET_NO = 999
REV_AT_EPOCH   = 93505
BSTAR          = .24847E-3
MEAN_MOTION_DOT = .341E-4
MEAN_MOTION_DDOT = 0

CCSDS_OMM_VERS = 2.0
CREATION_DATE  = 
ORIGINATOR     = 

OBJECT_NAME    = SL-6 R/B(2)
OBJECT_ID      = 1990-055D
CENTER_NAME    = EARTH
REF_FRAME      = TEME
TIME_SYSTEM    = UTC
MEAN_ELEMENT_THEORY = SGP/SGP4

EPOCH          = 2026-03-01T07:47:46.748832
MEAN_MOTION    = 15.03547841
ECCENTRICITY   = .0023451
INCLINATION    = 62.7823
RA_OF_ASC_NODE = 282.2972
ARG_OF_PERICENTER = 344.9290
MEAN_ANOMALY   = 15.1107

EPHEMERIS_TYPE = 0
CLASSIFICATION_TYPE = U
NORAD_CAT_ID   = 20666
ELEMENT_SET_NO = 999
REV_AT_EPOCH   = 93693
BSTAR          = .18078E-3
MEAN_MOTION_DOT = .2293E-4
MEAN_MOTION_DDOT = 0

CCSDS_OMM_VERS = 2.0
CREATION_DATE  = 
ORIGINATOR     = 

OBJECT_NAME    = SL-8 R/B
OBJECT_ID      = 1990-078B
CENTER_NAME    = EARTH
REF_FRAME      = TEME
TIME_SYSTEM    = UTC
MEAN_ELEMENT_THEORY = SGP/SGP4

EPOCH          = 2026-03-01T12:16:10.032672
MEAN_MOTION    = 14.88743535
ECCENTRICITY   = .036419
INCLINATION    = 82.8993
RA_OF_ASC_NODE = 258.6661
ARG_OF_PERICENTER = 41.4562
MEAN_ANOMALY   = 321.3678

EPHEMERIS_TYPE = 0
CLASSIFICATION_TYPE = U
NORAD_CAT_ID   = 20775
ELEMENT_SET_NO = 999
REV_AT_EPOCH   = 80808
BSTAR          = .47938E-3
MEAN_MOTION_DOT = .16323E-3
MEAN_MOTION_DDOT = 0

CCSDS_OMM_VERS = 2.0
CREATION_DATE  = 
ORIGINATOR     = 

OBJECT_NAME    = SL-8 R/B
OBJECT_ID      = 1991-006B
CENTER_NAME    = EARTH
REF_FRAME      = TEME
TIME_SYSTEM    = UTC
MEAN_ELEMENT_THEORY = SGP/SGP4

EPOCH          = 2026-03-01T10:00:33.759360
MEAN_MOTION    = 13.77493162
ECCENTRICITY   = .0023491
INCLINATION    = 82.9462
RA_OF_ASC_NODE = 176.1954
ARG_OF_PERICENTER = 60.6245
MEAN_ANOMALY   = 3.7972

EPHEMERIS_TYPE = 0
CLASSIFICATION_TYPE = U
NORAD_CAT_ID   = 21088
ELEMENT_SET_NO = 999
REV_AT_EPOCH   = 76293
BSTAR          = .25511E-4
MEAN_MOTION_DOT = .41E-6
MEAN_MOTION_DDOT = 0

CCSDS_OMM_VERS = 2.0
CREATION_DATE  = 
ORIGINATOR     = 

OBJECT_NAME    = OKEAN-3
OBJECT_ID      = 1991-039A
CENTER_NAME    = EARTH
REF_FRAME      = TEME
TIME_SYSTEM    = UTC
MEAN_ELEMENT_THEORY = SGP/SGP4

EPOCH          = 2026-03-01T07:12:32.379264
MEAN_MOTION    = 15.04734003
ECCENTRICITY   = .0014475
INCLINATION    = 82.5201
RA_OF_ASC_NODE = 344.9686
ARG_OF_PERICENTER = 7.7229
MEAN_ANOMALY   = 352.4218

EPHEMERIS_TYPE = 0
CLASSIFICATION_TYPE = U
NORAD_CAT_ID   = 21397
ELEMENT_SET_NO = 999
REV_AT_EPOCH   = 86377
BSTAR          = .26499E-3
MEAN_MOTION_DOT = .3767E-4
MEAN_MOTION_DDOT = 0

CCSDS_OMM_VERS = 2.0
CREATION_DATE  = 
ORIGINATOR     = 

OBJECT_NAME    = COSMOS 2151
OBJECT_ID      = 1991-042A
CENTER_NAME    = EARTH
REF_FRAME      = TEME
TIME_SYSTEM    = UTC
MEAN_ELEMENT_THEORY = SGP/SGP4

EPOCH          = 2026-03-01T11:29:17.968416
MEAN_MOTION    = 15.00067208
ECCENTRICITY   = .0014149
INCLINATION    = 82.4933
RA_OF_ASC_NODE = 91.5987
ARG_OF_PERICENTER = 88.1296
MEAN_ANOMALY   = 272.1548

EPHEMERIS_TYPE = 0
CLASSIFICATION_TYPE = U
NORAD_CAT_ID   = 21422
ELEMENT_SET_NO = 999
REV_AT_EPOCH   = 86196
BSTAR          = .15853E-3
MEAN_MOTION_DOT = .2005E-4
MEAN_MOTION_DDOT = 0

